STARLINK-30993          
1 58489U 23186S   26068.02351268  .00005829  00000+0  22129-3 0  9995
2 58489  43.0032  67.4606 0001811 277.2444  82.8202 15.27561669125781
FLOCK 4G-29             
1 62642U 25009AK  26068.81464037  .00011147  00000+0  41831-3 0  9994
2 62642  97.4058 151.3683 0001366 288.0502  72.0588 15.27382318 63721
